STARLINK-34725          
1 64843U 25152B   25206.75002315 -.00963996  27703-3 -31690-2 0  9995
2 64843  97.5952  58.5062 0001284  77.7102  79.8182 15.90494183  1627
STARLINK-34709          
1 64844U 25152C   25206.75002315 -.00975784  28356-3 -31967-2 0  9996
2 64844  97.5952  58.5067 0001141  80.8491  78.5938 15.90564417  1736
STARLINK-34706          
1 64845U 25152D   25206.75002315 -.00984542  28852-3 -32138-2 0  9991
2 64845  97.5954  58.5079 0001175  75.8602  85.7267 15.90636719  1625
STARLINK-34736          
1 64846U 25152E   25206.75002315 -.00994678  29427-3 -32352-2 0  9990
2 64846  97.5952  58.5086 0001172  95.6937  68.0073 15.90709377  1620
STARLINK-34746          
1 64847U 25152F   25206.75002315 -.01006049  30077-3 -32604-2 0  9991
2 64847  97.5953  58.5096 0001160  73.2952  92.4874 15.90782161  1621
STARLINK-34748          
1 64848U 25152G   25206.75002315 -.01016040  30657-3 -32806-2 0  9992
2 64848  97.5954  58.5108 0001147  76.4023  91.5947 15.90856667  1620
STARLINK-34756          
1 64849U 25152H   25206.75002315 -.01025114  31189-3 -32985-2 0  9994
2 64849  97.5954  58.5117 0001147  75.1924  94.8335 15.90925921  1624
STARLINK-34757          
1 64850U 25152J   25206.75002315 -.01037380  31909-3 -33257-2 0  9997
2 64850  97.5955  58.5128 0001224  91.5038  80.7003 15.90999982  1627
STARLINK-34722          
1 64851U 25152K   25206.75002315 -.01048053  32545-3 -33478-2 0  9999
2 64851  97.5955  58.5134 0001178  92.5815  81.7220 15.91072661  1413
STARLINK-34564          
1 64852U 25152L   25206.75002315 -.01058225  33156-3 -33687-2 0  9993
2 64852  97.5956  58.5144 0001300  77.6945  98.6058 15.91141344  1625
STARLINK-34676          
1 64853U 25152M   25206.75002315 -.01070749  33913-3 -33960-2 0  9994
2 64853  97.5957  58.5154 0001297  77.9589 100.5005 15.91215696  1627
STARLINK-34682          
1 64854U 25152N   25206.75002315 -.01080912  34537-3 -34160-2 0  9994
2 64854  97.5956  58.5163 0001122  89.6562  90.9236 15.91287687  1622
STARLINK-34631          
1 64855U 25152P   25206.75002315 -.01092653  35261-3 -34409-2 0  9991
2 64855  97.5957  58.5172 0001140  90.8954  91.7756 15.91358763  1623
STARLINK-34578          
1 64856U 25152Q   25206.75002315 -.01105871  36082-3 -34702-2 0  9997
2 64856  97.5957  58.5180 0001121  95.8477  88.8899 15.91430176  1621
STARLINK-34683          
1 64857U 25152R   25206.75002315 -.01123676  37193-3 -35135-2 0  9996
2 64857  97.5957  58.5187 0001410 101.9739  84.8150 15.91502003  1625
STARLINK-34654          
1 64858U 25152S   25206.75002315 -.01138884  38159-3 -35482-2 0  9992
2 64858  97.5959  58.5197 0001145  97.2046  91.7373 15.91575523  1623
STARLINK-34575          
1 64859U 25152T   25206.75002315 -.01158533  39417-3 -35961-2 0  9996
2 64859  97.5958  58.5208 0001217 104.0619  87.0320 15.91650464  1627
STARLINK-34570          
1 64860U 25152U   25206.75002315 -.01171216  40246-3 -36241-2 0  9995
2 64860  97.5961  58.5217 0001237  89.0704 103.9090 15.91713393  1625
STARLINK-34651          
1 64861U 25152V   25206.75002315 -.01186783  41271-3 -36596-2 0  9993
2 64861  97.5962  58.5225 0001255  90.2495 104.8210 15.91783075  1625
STARLINK-34684          
1 64862U 25152W   25206.75002315 -.01204643  42460-3 -37007-2 0  9999
2 64862  97.5964  58.5237 0001209 103.1707  94.1906 15.91859277  1621
STARLINK-34690          
1 64863U 25152X   25206.75002315 -.01216727  43282-3 -37253-2 0  9992
2 64863  97.5966  58.5248 0001208  82.1248 117.3910 15.91926413  1621
STARLINK-34628          
1 64864U 25152Y   25206.75002315 -.01188769  41474-3 -36318-2 0  9999
2 64864  97.5969  58.5259 0001222  99.4207 102.3626 15.91964706  1512
STARLINK-34544          
1 64865U 25152Z   25206.75002315 -.01239470  44851-3 -37692-2 0  9994
2 64865  97.5969  58.5265 0001121  97.5606 106.1983 15.92062380  1516
2025-153A               
1 64866U 25153A   25205.12580773  .00000048  00000+0  00000+0 0  9993
2 64866   9.7176  89.2212 1938114 184.0458  11.5544  7.31859725   101
2025-153B               
1 64867U 25153B   25205.11713200  .00000048  00000+0  00000+0 0  9996
2 64867   9.7188  89.2292 1940420 183.8195 349.3239  7.31983586    84
2025-153C               
1 64868U 25153C   25205.12348477  .00000049  00000+0  00000+0 0  9999
2 64868   9.7176  89.1432 1940844 184.1778   7.1773  7.32308429    88
2025-154A               
1 64869U 25154A   25206.94694660  .00003174  00000+0  32247-3 0  9994
2 64869  97.7154 272.9882 0004648 224.1600 135.9248 14.91509729   327
2025-154B               
1 64870U 25154B   25206.94609532  .00001338  00000+0  13710-3 0  9994
2 64870  97.7148 272.9893 0004128 260.6245  99.4507 14.92103766   321
2025-154C               
1 64871U 25154C   25206.94601955  .00002824  00000+0  28290-3 0  9996
2 64871  97.7135 272.9892 0004003 264.7355  95.3408 14.92155814   322
2025-154D               
1 64872U 25154D   25206.94595429  .00001235  00000+0  12668-3 0  9992
2 64872  97.7130 272.9893 0004113 266.2592  93.8157 14.92203314   313
2025-154E               
1 64873U 25154E   25206.94572428  .00001298  00000+0  13232-3 0  9994
2 64873  97.7151 272.9895 0005055 270.7165  89.3475 14.92363317   325
2025-154F               
1 64874U 25154F   25206.77878973  .00006449  00000+0  32636-3 0  9992
2 64874  97.4417 272.7035 0002821  22.0335 338.1019 15.17355104   295
2025-154G               
1 64875U 25154G   25206.90958608  .00012140  00000+0  59706-3 0  9994
2 64875  97.4475 272.8339 0001845 119.9066 240.2352 15.18160279   314
IONOSFERA-M A           
1 64876U 25155A   25206.67935485 -.00000042  00000+0  00000+0 0  9996
2 64876  98.5512 172.6227 0002496  81.7648  25.3115 14.21336367    19
IONOSFERA-M B           
1 64877U 25155B   25206.69364755  .00000175  00000+0  10000-3 0  9996
2 64877  98.5492 172.6378 0001980  97.6918  82.2612 14.21186206    16
